[{"OBJECT_NAME":"RESOURCESAT-2","OBJECT_ID":"2011-015A","EPOCH":"2026-03-09T22:09:34.808256","MEAN_MOTION":14.21500709,"ECCENTRICITY":0.00064275,"INCLINATION":98.7721,"RA_OF_ASC_NODE":137.0095,"ARG_OF_PERICENTER":138.2632,"MEAN_ANOMALY":221.9036,"EPHEMERIS_TYPE":0,"CLASSIFICATION_TYPE":"U","NORAD_CAT_ID":37387,"ELEMENT_SET_NO":999,"REV_AT_EPOCH":77207,"BSTAR":-7.3226423e-5,"MEAN_MOTION_DOT":-2.05e-6,"MEAN_MOTION_DDOT":0},{"OBJECT_NAME":"CZ-6A DEB","OBJECT_ID":"2022-151AEM","EPOCH":"2026-03-08T00:38:09.882528","MEAN_MOTION":14.22356458,"ECCENTRICITY":0.00024025,"INCLINATION":98.8124,"RA_OF_ASC_NODE":92.2136,"ARG_OF_PERICENTER":199.5978,"MEAN_ANOMALY":160.5107,"EPHEMERIS_TYPE":0,"CLASSIFICATION_TYPE":"U","NORAD_CAT_ID":56613,"ELEMENT_SET_NO":999,"REV_AT_EPOCH":15384,"BSTAR":0.00075284719,"MEAN_MOTION_DOT":1.63e-5,"MEAN_MOTION_DDOT":0}]
